OPTICUBE 04             
1 41851U 16067D   18157.22660555 -.00000332  00000-0 -23771-4 0  9996
2 41851  97.9232 245.2064 0008498 194.2215 165.8768 14.96667128 85452
AEROCUBE 8D             
1 41852U 16067E   18156.86100029  .00000828  00000-0  78223-4 0  9991
2 41852  97.9250 244.6804 0009322 192.9656 167.1327 14.96491119 85382
AEROCUBE 8C             
1 41853U 16067F   18156.87486918  .00000199  00000-0  22899-4 0  9996
2 41853  97.9250 244.6585 0009478 195.1782 164.9156 14.96457652 85385
PROMETHEUS 2-1          
1 41854U 16067G   18157.21641532 -.00000054  00000-0  59965-6 0  9998
2 41854  97.9255 245.0106 0009863 194.7863 165.3071 14.96557927 85431
PROMETHEUS 2-3          
1 41855U 16067H   18157.48647238 -.00000129  00000-0 -59596-5 0  9990
2 41855  97.9256 245.2884 0010094 194.8048 165.2878 14.96554365 85473
ITF-2                   
1 41932U 98067KU  18157.08093997  .00032622  00000-0  21162-3 0  9996
2 41932  51.6341  38.0517 0004483 149.1557 210.9706 15.75679915 79013
WASEDA-SAT3             
1 41933U 98067KV  18156.91317719  .00055010  00000-0  26701-3 0  9999
2 41933  51.6351  32.2842 0004206 158.3762 201.7419 15.81890746 79074
AOBA-VELOX 3            
1 41935U 98067KX  18156.93469804  .00046173  00000-0  25179-3 0  9994
2 41935  51.6366  34.7663 0004386 154.3793 205.7426 15.79423409 79144
INS-1B                  
1 41954U 17008G   18156.88850490  .00001472  00000-0  65598-4 0  9993
2 41954  97.4466 220.9480 0010465  41.6102 318.5929 15.22982867 72282
BGUSAT                  
1 41999U 17008BD  18156.93886331  .00002140  00000-0  89764-4 0  9995
2 41999  97.4507 222.0219 0009925  58.6160 301.6047 15.24551919 71714
DIDO-2                  
1 42000U 17008BE  18157.42290954  .00001035  00000-0  46761-4 0  9996
2 42000  97.4483 221.9040 0010057  56.8946 303.3255 15.23178331 71768
PEASSS                  
1 42015U 17008BV  18157.14439703  .00001255  00000-0  54767-4 0  9997
2 42015  97.4480 222.0712 0008095  65.6534 294.5548 15.23984759 72237
AL-FARABI 1             
1 42016U 17008BW  18157.46821568  .00001581  00000-0  67422-4 0  9991
2 42016  97.4488 222.5824 0007973  65.2556 294.9510 15.24392685 72414
NAYIF-1 (EO-88)         
1 42017U 17008BX  18156.87187066  .00001732  00000-0  73551-4 0  9992
2 42017  97.4487 221.9961 0007985  67.1118 293.0961 15.24415036 72345
HAVELSAT                
1 42700U 98067LH  18157.07941803  .00027554  00000-0  22219-3 0  9999
2 42700  51.6359  51.5630 0003822 185.3212 174.7745 15.70663586 60278
CXBN-2                  
1 42704U 98067LM  18157.09759549  .00026107  00000-0  21483-3 0  9994
2 42704  51.6365  52.4504 0003034 126.1927 233.9352 15.70210294 60186
ICECUBE                 
1 42705U 98067LN  18157.31006029  .00059576  00000-0  34028-3 0  9993
2 42705  51.6450  44.1906 0003263 156.9803 203.1344 15.78292123 60374
PHOENIX                 
1 42706U 98067LP  18157.15156038  .00017353  00000-0  15343-3 0  9998
2 42706  51.6364  52.8049 0002270 125.2333 234.8877 15.68756465 60170
X-CUBESAT               
1 42707U 98067LQ  18157.25458008  .00027080  00000-0  21414-3 0  9996
2 42707  51.6327  50.4200 0002505 130.4234 229.6982 15.71146979 60202
QBEE50-LTU-OC           
1 42708U 98067LR  18157.25922811  .00024445  00000-0  20065-3 0  9998
2 42708  51.6367  51.2571 0002403 130.2319 229.8889 15.70313650 60159
ALTAIR PATHFINDER       
1 42711U 98067LS  18157.14022835  .00013060  00000-0  14030-3 0  9993
2 42711  51.6370  59.4931 0004576 130.3892 229.7503 15.64134973 59744
SHARC                   
1 42712U 98067LT  18157.20584439  .00020218  00000-0  21637-3 0  9998
2 42712  51.6383  60.7370 0003394 132.4385 227.6897 15.63845777 59976
ZA-AEROSAT              
1 42713U 98067LU  18157.29869976  .00016915  00000-0  15774-3 0  9994
2 42713  51.6355  54.5265 0003285 121.1019 239.0300 15.67460076 59827
LINK                    
1 42714U 98067LV  18157.50895184  .00052577  00000-0  29153-3 0  9999
2 42714  51.6265  43.0132 0003648 136.3119 223.8172 15.79001773 60105
CSUNSAT 1               
1 42715U 98067LW  18157.13075054  .00021685  00000-0  19608-3 0  9995
2 42715  51.6364  54.9253 0004740 124.8781 235.2661 15.68024437 59807
SPACECUBE               
1 42717U 98067LY  18157.15774528  .00023219  00000-0  19126-3 0  9991
2 42717  51.6340  52.0601 0002813 175.6994 184.4028 15.70260962 59213
HOOPOE                  
1 42718U 98067LZ  18157.14500277  .00030510  00000-0  22496-3 0  9995
2 42718  51.6349  49.7266 0002978 170.4925 189.6130 15.72741083 59246
CHALLENGER              
1 42721U 98067MA  18157.51894931  .00089681  00000-0  37075-3 0  9995
2 42721  51.6287  38.5506 0005246 182.1398 177.9584 15.85091847 59129
NJUST-1                 
1 42722U 98067MB  18157.28899135  .00014888  00000-0  14466-3 0  9997
2 42722  51.6365  55.9820 0005424 176.2035 183.9003 15.66544004 58870
UNSW-ECO                
1 42723U 98067MC  18156.89645915  .00035423  00000-0  25329-3 0  9997
2 42723  51.6371  51.0978 0004931 169.9006 190.2092 15.73375536 58888
LILACSAT-1              
1 42725U 98067ME  18157.22031943  .00020614  00000-0  18010-3 0  9992
2 42725  51.6364  54.0163 0004502 172.8617 187.2445 15.68906766 58793
NSIGHT-1                
1 42726U 98067MF  18157.24160159  .00005955  00000-0  74503-4 0  9998
2 42726  51.6392  62.4736 0005178 181.5334 178.5645 15.61386543 58699
SNUSAT-1                
1 42727U 98067MG  18157.16768549  .00021609  00000-0  18906-3 0  9995
2 42727  51.6344  54.3646 0006698 145.9725 214.1703 15.68824840 58756
I-INSPIRE II            
1 42731U 98067ML  18157.27479628  .00034572  00000-0  24077-3 0  9998
2 42731  51.6339  48.3010 0006111 138.7834 221.3627 15.73996535 58734
POLYITAN-2-SAU          
1 42732U 98067MM  18157.32202946  .00026366  00000-0  21018-3 0  9996
2 42732  51.6355  50.9029 0006320 135.0225 225.1285 15.70952722 58704
SNUSAT-1B               
1 42733U 98067MN  18157.14416459  .00023236  00000-0  19744-3 0  9999
2 42733  51.6359  53.4826 0006449 136.2445 223.9065 15.69489655 58655
EXALTA-1                
1 42734U 98067MP  18157.19797984  .00039956  00000-0  27075-3 0  9992
2 42734  51.6327  48.5136 0006588 156.9970 203.1325 15.74557223 58670
BEEAGLESAT              
1 42736U 98067MR  18157.13162627  .00022300  00000-0  19990-3 0  9990
2 42736  51.6355  54.8987 0005621 173.1368 186.9707 15.68213168 58690
UCLSAT                  
1 42765U 17036A   18156.89973626  .00001367  00000-0  63106-4 0  9999
2 42765  97.4015 216.9301 0013509 113.4149 246.8510 15.21825989 53582
LITUANICASAT-2          
1 42768U 17036D   18157.15076981  .00002121  00000-0  97480-4 0  9991
2 42768  97.4026 216.7832 0017593 104.3385 255.9806 15.21333491 52885
AALTO-1                 
1 42775U 17036L   18156.91299199  .00000927  00000-0  45144-4 0  9992
2 42775  97.4009 216.4513 0015963 102.9333 257.3687 15.20733008 52782
URSA MAIOR              
1 42776U 17036M   18157.16332191  .00000989  00000-0  47831-4 0  9994
2 42776  97.4015 216.7461 0015815 102.3614 257.9392 15.20809561 52829
COMPASS 2               
1 42777U 17036N   18157.16181209  .00001749  00000-0  80165-4 0  9999
2 42777  97.4032 217.1132 0014769 105.6037 254.6831 15.21700591 52838
DIAMOND RED             
1 42783U 17036U   18156.83000052  .00001187  00000-0  55798-4 0  9995
2 42783  97.4016 216.7247 0014113 113.7543 246.5174 15.21437308 52781
PEGASUS                 
1 42784U 17036V   18156.87001185  .00001351  00000-0  62767-4 0  9995
2 42784  97.4017 216.8298 0014018 113.6461 246.6248 15.21636715 52799
DIAMOND GREEN           
1 42785U 17036W   18157.15775289  .00001108  00000-0  52302-4 0  9995
2 42785  97.4018 217.0598 0013999 113.2337 247.0374 15.21440396 52829
DIAMOND BLUE            
1 42786U 17036X   18157.15688792  .00001094  00000-0  51687-4 0  9997
2 42786  97.4017 217.0591 0013838 113.3986 246.8707 15.21439984 52823
NUDTSAT                 
1 42787U 17036Y   18156.92402181  .00001907  00000-0  85913-4 0  9990
2 42787  97.4021 217.0734 0013645 113.2745 246.9929 15.22202436 52655
SUCHAI                  
1 42788U 17036Z   18157.15799520  .00001556  00000-0  71270-4 0  9994
2 42788  97.4019 217.2065 0013665 112.7073 247.5609 15.21901852 52910
SKCUBE                  
1 42789U 17036AA  18156.89414433  .00001458  00000-0  67034-4 0  9996
2 42789  97.4017 216.9426 0013478 113.3798 246.8857 15.21865448 52792
VZLUSAT-1               
1 42790U 17036AB  18156.91348040  .00001859  00000-0  83767-4 0  9997
2 42790  97.4018 217.0707 0013206 113.5686 246.6939 15.22223272 52801
ROBUSTA-1B              
1 42792U 17036AD  18157.45556602  .00001441  00000-0  66032-4 0  9997
2 42792  97.4016 217.5552 0013054 112.4341 247.8280 15.22007450 52890
CICERO 6                
1 42793U 17036AE  18157.11997794  .00000940  00000-0  44316-4 0  9996
2 42793  97.4009 217.2250 0012162 114.1441 246.1068 15.21856745 52911
D-SAT                   
1 42794U 17036AF  18157.37202806  .00000241  00000-0  26757-4 0  9991
2 42794  97.5921 212.4365 0126006 318.7959  40.3799 14.90865763 52111
TOKI                    
1 42820U 98067MU  18156.94075162  .00021208  00000-0  19741-3 0  9999
2 42820  51.6356  58.1319 0003990 115.0075 245.1336 15.67325318 52115
MAZAALAI (NUMSAT-1)     
1 42822U 98067MW  18156.90857334  .00019664  00000-0  18547-3 0  9992
2 42822  51.6357  58.6720 0003964 118.6230 241.5165 15.67053800 52082
BRAC ONNESHA            
1 42823U 98067MX  18157.16030789  .00018935  00000-0  17803-3 0  9993
2 42823  51.6364  57.3703 0005954 138.8648 221.2798 15.67151197 52104
NIGERIAEDUSAT-1         
1 42824U 98067MY  18156.92799115  .00020251  00000-0  19157-3 0  9990
2 42824  51.6369  58.8344 0005860 138.0957 222.0488 15.66948777 52087
CORVUS BC2              
1 42846U 17042X   18157.20630478  .00000335  00000-0  38552-4 0  9998
2 42846  97.5984  60.4760 0008389 227.3092 132.7421 14.91815929 48735
